APRIZESAT 2             
1 28366U 04025A   26199.24792882  .00000084  00000+0  39072-4 0  9991
2 28366  98.1045   3.4743 0106126 155.6863 204.9385 14.38048428156101
SAUDICOMSAT 1           
1 28369U 04025D   26199.84544747  .00000122  00000+0  39243-4 0  9998
2 28369  98.5778 210.8324 0030894 287.2737  72.5079 14.55494941168735
SAUDICOMSAT 2           
1 28370U 04025E   26199.86806072  .00000085  00000+0  34085-4 0  9991
2 28370  98.6643 213.0101 0055864 162.5924 197.7201 14.49995399164698
APRIZESAT 1             
1 28372U 04025G   26199.86046014  .00000099  00000+0  36316-4 0  9999
2 28372  98.6310 211.4486 0045673  59.8213 300.7494 14.51793203166500
NANOSAT-1               
1 28493U 04049B   26199.80577104  .00000454  00000+0  67083-4 0  9992
2 28493  98.2316 337.2476 0004071 172.7400 187.3871 14.80214583160123
SAUDICOMSAT 7           
1 31119U 07012C   26199.71152367  .00000225  00000+0  49391-4 0  9992
2 31119  98.3801 174.4922 0057025  97.5177 263.2509 14.66138524 27051
SAUDICOMSAT 6           
1 31121U 07012E   26199.83389801  .00000153  00000+0  39438-4 0  9994
2 31121  98.4120 167.9440 0070673 227.5799 131.9410 14.62586140 24810
SAUDICOMSAT 5           
1 31124U 07012H   26199.84522904  .00000296  00000+0  59792-4 0  9994
2 31124  98.3513 175.3696 0048005  27.5342 332.8389 14.68194728 28241
SAUDICOMSAT 3           
1 31125U 07012J   26199.88685061  .00000334  00000+0  62979-4 0  9997
2 31125  98.3167 175.9582 0038041 313.3086  46.4949 14.70752710 29488
SAUDICOMSAT 4           
1 31127U 07012L   26199.78789937  .00000190  00000+0  44566-4 0  9997
2 31127  98.4006 173.0069 0063809 158.5658 201.8238 14.64537096 25919
APRIZESAT 4             
1 35684U 09041D   26199.74730275  .00000287  00000+0  41061-4 0  9994
2 35684  98.1401 275.6954 0042457 217.7364 142.0870 14.83916474916040
APRIZESAT 3             
1 35686U 09041F   26199.39547456  .00000335  00000+0  34575-4 0  9990
2 35686  98.2106 354.1225 0060719 325.2284  34.4974 14.96315172921043
S-NET D                 
1 43186U 18014G   26199.73136882  .00002292  00000+0  11964-3 0  9999
2 43186  97.5324 104.3260 0006236 269.3147  90.7371 15.16935449463545
S-NET B                 
1 43187U 18014H   26199.67747862  .00002444  00000+0  12744-3 0  9995
2 43187  97.5330 104.2599 0006845 263.5777  96.4677 15.16904579463539
S-NET A                 
1 43188U 18014J   26199.73007259  .00002262  00000+0  11808-3 0  9990
2 43188  97.5339 104.5271 0006758 264.3439  95.7023 15.16943714463548
S-NET C                 
1 43189U 18014K   26199.68152536  .00002440  00000+0  12723-3 0  9999
2 43189  97.5357 104.5583 0008127 255.5653 104.4678 15.16895682462089
SALSAT                  
1 46495U 20068K   26199.01462697  .00004061  00000+0  14177-3 0  9999
2 46495  97.8861 203.9671 0009495 182.8082 177.3106 15.30195257320078
OOV-CUBE (TUBSAT-30)    
1 60240U 24128F   26199.32762964  .00000912  00000+0  82295-4 0  9996
2 60240  61.9941 116.9785 0040721 140.6907 219.7153 15.02880941110796
LPNTSAT-001 (IOD-1)     
1 68408U 26065A   26198.91401277  .00001297  00000+0  65700-4 0  9992
2 68408  97.3976  78.7699 0014642 255.8126 104.1482 15.18676475 16929
CHUANG XIN 26 (CX-26)   
1 69972U 26158A   26199.63330041 -.00000027  00000+0  56359-4 0  9993
2 69972  49.9834 265.9089 0004914 311.3503  48.6987 14.25123885  1197
